METOP-C                 
1 43689U 18087A   26095.56875418  .00000182  00000+0  10285-3 0  9999
2 43689  98.6711 156.4781 0001744  63.4650 296.6706 14.21506653384516
GEO-KOMPSAT-2A          
1 43823U 18100A   26095.55649840 -.00000342  00000+0  00000+0 0  9991
2 43823   0.0518  36.3478 0001956  24.9080 101.2001  1.00273238 26909
METEOR-M2 2             
1 44387U 19038A   26095.60960289  .00000023  00000+0  29885-4 0  9999
2 44387  98.9119  81.8386 0000678 164.8757 195.2441 14.24344781350965
ARKTIKA-M 1             
1 47719U 21016A   26086.24697042 -.00000098  00000+0  00000+0 0  9990
2 47719  63.2179  69.3783 7253959 269.5617  15.0995  2.00616454 37142
FENGYUN 3E              
1 49008U 21062A   26095.62057946  .00000215  00000+0  12216-3 0  9995
2 49008  98.7512  99.8348 0000904 340.8444  19.2698 14.19898521246281
GOES 18                 
1 51850U 22021A   26095.53184713  .00000098  00000+0  00000+0 0  9995
2 51850   0.0483  40.0599 0000637  35.3456 172.8934  1.00270314  5866
NOAA 21 (JPSS-2)        
1 54234U 22150A   26095.57661823  .00000149  00000+0  91285-4 0  9990
2 54234  98.7586  35.5396 0002616  59.5574 300.5860 14.19559760176243
METEOSAT-12 (MTG-I1)    
1 54743U 22170C   26095.34197659 -.00000005  00000+0  00000+0 0  9995
2 54743   0.7407  26.5993 0001517 303.8155 346.0400  1.00274832 12249
TIANMU-1 03             
1 55973U 23039A   26095.56875601  .00020446  00000+0  43156-3 0  9993
2 55973  97.5207 266.8207 0002944  22.8460 337.2919 15.45234750169616
TIANMU-1 04             
1 55974U 23039B   26095.58454793  .00020594  00000+0  42691-3 0  9998
2 55974  97.5140 265.9912 0003450  14.2796 345.8549 15.45762493169621
TIANMU-1 05             
1 55975U 23039C   26095.61115285  .00020123  00000+0  42562-3 0  9998
2 55975  97.5185 266.5060 0003226  45.4851 314.6660 15.45176435169602
TIANMU-1 06             
1 55976U 23039D   26095.58417541  .00020300  00000+0  42181-3 0  9999
2 55976  97.5195 267.0436 0003383  37.5304 322.6180 15.45696355169622
FENGYUN 3G              
1 56232U 23055A   26095.59779545  .00037606  00000+0  58200-3 0  9995
2 56232  49.9948   0.3180 0004007  48.1692 311.9617 15.53631374168726
METEOR-M2 3             
1 57166U 23091A   26095.58765240  .00000027  00000+0  30411-4 0  9990
2 57166  98.6163 152.0266 0004446  36.7859 323.3624 14.24040694144183
TIANMU-1 07             
1 57399U 23101A   26095.60953089  .00008824  00000+0  31186-3 0  9995
2 57399  97.2665 147.9529 0004436  78.6501 281.5238 15.29408343150555
TIANMU-1 08             
1 57400U 23101B   26094.53033657  .00000459  00000+0  18611-4 0  9994
2 57400  97.2662 146.6773 0005376  60.6646 299.5131 15.29475906150388
TIANMU-1 09             
1 57401U 23101C   26095.62628409  .00009213  00000+0  32525-3 0  9997
2 57401  97.2613 147.2044 0004883  76.3962 283.7822 15.29429992150555
