[{"OBJECT_NAME":"METOP-C","OBJECT_ID":"2018-087A","EPOCH":"2026-04-05T13:39:00.361152","MEAN_MOTION":14.21506653,"ECCENTRICITY":0.00017446,"INCLINATION":98.6711,"RA_OF_ASC_NODE":156.4781,"ARG_OF_PERICENTER":63.465,"MEAN_ANOMALY":296.6706,"EPHEMERIS_TYPE":0,"CLASSIFICATION_TYPE":"U","NORAD_CAT_ID":43689,"ELEMENT_SET_NO":999,"REV_AT_EPOCH":38451,"BSTAR":0.00010284912,"MEAN_MOTION_DOT":1.82e-6,"MEAN_MOTION_DDOT":0},{"OBJECT_NAME":"GEO-KOMPSAT-2A","OBJECT_ID":"2018-100A","EPOCH":"2026-04-05T13:21:21.461760","MEAN_MOTION":1.00273238,"ECCENTRICITY":0.00019562,"INCLINATION":0.0518,"RA_OF_ASC_NODE":36.3478,"ARG_OF_PERICENTER":24.908,"MEAN_ANOMALY":101.2001,"EPHEMERIS_TYPE":0,"CLASSIFICATION_TYPE":"U","NORAD_CAT_ID":43823,"ELEMENT_SET_NO":999,"REV_AT_EPOCH":2690,"BSTAR":0,"MEAN_MOTION_DOT":-3.42e-6,"MEAN_MOTION_DDOT":0},{"OBJECT_NAME":"METEOR-M2 2","OBJECT_ID":"2019-038A","EPOCH":"2026-04-05T14:37:49.689696","MEAN_MOTION":14.24344781,"ECCENTRICITY":6.783e-5,"INCLINATION":98.9119,"RA_OF_ASC_NODE":81.8386,"ARG_OF_PERICENTER":164.8757,"MEAN_ANOMALY":195.2441,"EPHEMERIS_TYPE":0,"CLASSIFICATION_TYPE":"U","NORAD_CAT_ID":44387,"ELEMENT_SET_NO":999,"REV_AT_EPOCH":35096,"BSTAR":2.9885364e-5,"MEAN_MOTION_DOT":2.3e-7,"MEAN_MOTION_DDOT":0},{"OBJECT_NAME":"ARKTIKA-M 1","OBJECT_ID":"2021-016A","EPOCH":"2026-03-27T05:55:38.244288","MEAN_MOTION":2.00616454,"ECCENTRICITY":0.7253959,"INCLINATION":63.2179,"RA_OF_ASC_NODE":69.3783,"ARG_OF_PERICENTER":269.5617,"MEAN_ANOMALY":15.0995,"EPHEMERIS_TYPE":0,"CLASSIFICATION_TYPE":"U","NORAD_CAT_ID":47719,"ELEMENT_SET_NO":999,"REV_AT_EPOCH":3714,"BSTAR":0,"MEAN_MOTION_DOT":-9.8e-7,"MEAN_MOTION_DDOT":0},{"OBJECT_NAME":"FENGYUN 3E","OBJECT_ID":"2021-062A","EPOCH":"2026-04-05T14:53:38.065344","MEAN_MOTION":14.19898521,"ECCENTRICITY":9.048e-5,"INCLINATION":98.7512,"RA_OF_ASC_NODE":99.8348,"ARG_OF_PERICENTER":340.8444,"MEAN_ANOMALY":19.2698,"EPHEMERIS_TYPE":0,"CLASSIFICATION_TYPE":"U","NORAD_CAT_ID":49008,"ELEMENT_SET_NO":999,"REV_AT_EPOCH":24628,"BSTAR":0.00012215883,"MEAN_MOTION_DOT":2.15e-6,"MEAN_MOTION_DDOT":0},{"OBJECT_NAME":"GOES 18","OBJECT_ID":"2022-021A","EPOCH":"2026-04-05T12:45:51.592032","MEAN_MOTION":1.00270314,"ECCENTRICITY":6.374e-5,"INCLINATION":0.0483,"RA_OF_ASC_NODE":40.0599,"ARG_OF_PERICENTER":35.3456,"MEAN_ANOMALY":172.8934,"EPHEMERIS_TYPE":0,"CLASSIFICATION_TYPE":"U","NORAD_CAT_ID":51850,"ELEMENT_SET_NO":999,"REV_AT_EPOCH":586,"BSTAR":0,"MEAN_MOTION_DOT":9.8e-7,"MEAN_MOTION_DDOT":0},{"OBJECT_NAME":"NOAA 21 (JPSS-2)","OBJECT_ID":"2022-150A","EPOCH":"2026-04-05T13:50:19.815072","MEAN_MOTION":14.1955976,"ECCENTRICITY":0.00026162,"INCLINATION":98.7586,"RA_OF_ASC_NODE":35.5396,"ARG_OF_PERICENTER":59.5574,"MEAN_ANOMALY":300.586,"EPHEMERIS_TYPE":0,"CLASSIFICATION_TYPE":"U","NORAD_CAT_ID":54234,"ELEMENT_SET_NO":999,"REV_AT_EPOCH":17624,"BSTAR":9.1285101e-5,"MEAN_MOTION_DOT":1.49e-6,"MEAN_MOTION_DDOT":0},{"OBJECT_NAME":"METEOSAT-12 (MTG-I1)","OBJECT_ID":"2022-170C","EPOCH":"2026-04-05T08:12:26.777376","MEAN_MOTION":1.00274832,"ECCENTRICITY":0.00015179,"INCLINATION":0.7407,"RA_OF_ASC_NODE":26.5993,"ARG_OF_PERICENTER":303.8155,"MEAN_ANOMALY":346.04,"EPHEMERIS_TYPE":0,"CLASSIFICATION_TYPE":"U","NORAD_CAT_ID":54743,"ELEMENT_SET_NO":999,"REV_AT_EPOCH":1224,"BSTAR":0,"MEAN_MOTION_DOT":-5.0e-8,"MEAN_MOTION_DDOT":0},{"OBJECT_NAME":"TIANMU-1 03","OBJECT_ID":"2023-039A","EPOCH":"2026-04-05T13:39:00.519264","MEAN_MOTION":15.4523475,"ECCENTRICITY":0.00029442,"INCLINATION":97.5207,"RA_OF_ASC_NODE":266.8207,"ARG_OF_PERICENTER":22.846,"MEAN_ANOMALY":337.2919,"EPHEMERIS_TYPE":0,"CLASSIFICATION_TYPE":"U","NORAD_CAT_ID":55973,"ELEMENT_SET_NO":999,"REV_AT_EPOCH":16961,"BSTAR":0.00043155642,"MEAN_MOTION_DOT":0.00020446,"MEAN_MOTION_DDOT":0},{"OBJECT_NAME":"TIANMU-1 04","OBJECT_ID":"2023-039B","EPOCH":"2026-04-05T14:01:44.941152","MEAN_MOTION":15.45762493,"ECCENTRICITY":0.000345,"INCLINATION":97.514,"RA_OF_ASC_NODE":265.9912,"ARG_OF_PERICENTER":14.2796,"MEAN_ANOMALY":345.8549,"EPHEMERIS_TYPE":0,"CLASSIFICATION_TYPE":"U","NORAD_CAT_ID":55974,"ELEMENT_SET_NO":999,"REV_AT_EPOCH":16962,"BSTAR":0.00042691046,"MEAN_MOTION_DOT":0.00020594,"MEAN_MOTION_DDOT":0},{"OBJECT_NAME":"TIANMU-1 05","OBJECT_ID":"2023-039C","EPOCH":"2026-04-05T14:40:03.606240","MEAN_MOTION":15.45176435,"ECCENTRICITY":0.0003226,"INCLINATION":97.5185,"RA_OF_ASC_NODE":266.506,"ARG_OF_PERICENTER":45.4851,"MEAN_ANOMALY":314.666,"EPHEMERIS_TYPE":0,"CLASSIFICATION_TYPE":"U","NORAD_CAT_ID":55975,"ELEMENT_SET_NO":999,"REV_AT_EPOCH":16960,"BSTAR":0.00042562027,"MEAN_MOTION_DOT":0.00020123,"MEAN_MOTION_DDOT":0},{"OBJECT_NAME":"TIANMU-1 06","OBJECT_ID":"2023-039D","EPOCH":"2026-04-05T14:01:12.755424","MEAN_MOTION":15.45696355,"ECCENTRICITY":0.00033833,"INCLINATION":97.5195,"RA_OF_ASC_NODE":267.0436,"ARG_OF_PERICENTER":37.5304,"MEAN_ANOMALY":322.618,"EPHEMERIS_TYPE":0,"CLASSIFICATION_TYPE":"U","NORAD_CAT_ID":55976,"ELEMENT_SET_NO":999,"REV_AT_EPOCH":16962,"BSTAR":0.00042180517,"MEAN_MOTION_DOT":0.000203,"MEAN_MOTION_DDOT":0},{"OBJECT_NAME":"FENGYUN 3G","OBJECT_ID":"2023-055A","EPOCH":"2026-04-05T14:20:49.526880","MEAN_MOTION":15.53631374,"ECCENTRICITY":0.00040078,"INCLINATION":49.9948,"RA_OF_ASC_NODE":0.318,"ARG_OF_PERICENTER":48.1692,"MEAN_ANOMALY":311.9617,"EPHEMERIS_TYPE":0,"CLASSIFICATION_TYPE":"U","NORAD_CAT_ID":56232,"ELEMENT_SET_NO":999,"REV_AT_EPOCH":16872,"BSTAR":0.00058199729,"MEAN_MOTION_DOT":0.00037606,"MEAN_MOTION_DDOT":0},{"OBJECT_NAME":"METEOR-M2 3","OBJECT_ID":"2023-091A","EPOCH":"2026-04-05T14:06:13.167360","MEAN_MOTION":14.24040694,"ECCENTRICITY":0.00044464,"INCLINATION":98.6163,"RA_OF_ASC_NODE":152.0266,"ARG_OF_PERICENTER":36.7859,"MEAN_ANOMALY":323.3624,"EPHEMERIS_TYPE":0,"CLASSIFICATION_TYPE":"U","NORAD_CAT_ID":57166,"ELEMENT_SET_NO":999,"REV_AT_EPOCH":14418,"BSTAR":3.0411213e-5,"MEAN_MOTION_DOT":2.7e-7,"MEAN_MOTION_DDOT":0},{"OBJECT_NAME":"TIANMU-1 07","OBJECT_ID":"2023-101A","EPOCH":"2026-04-05T14:37:43.468896","MEAN_MOTION":15.29408343,"ECCENTRICITY":0.00044369,"INCLINATION":97.2665,"RA_OF_ASC_NODE":147.9529,"ARG_OF_PERICENTER":78.6501,"MEAN_ANOMALY":281.5238,"EPHEMERIS_TYPE":0,"CLASSIFICATION_TYPE":"U","NORAD_CAT_ID":57399,"ELEMENT_SET_NO":999,"REV_AT_EPOCH":15055,"BSTAR":0.00031186085,"MEAN_MOTION_DOT":8.824e-5,"MEAN_MOTION_DDOT":0},{"OBJECT_NAME":"TIANMU-1 08","OBJECT_ID":"2023-101B","EPOCH":"2026-04-04T12:43:41.079648","MEAN_MOTION":15.29475906,"ECCENTRICITY":0.0005376,"INCLINATION":97.2662,"RA_OF_ASC_NODE":146.6773,"ARG_OF_PERICENTER":60.6646,"MEAN_ANOMALY":299.5131,"EPHEMERIS_TYPE":0,"CLASSIFICATION_TYPE":"U","NORAD_CAT_ID":57400,"ELEMENT_SET_NO":999,"REV_AT_EPOCH":15038,"BSTAR":1.8611e-5,"MEAN_MOTION_DOT":4.59e-6,"MEAN_MOTION_DDOT":0},{"OBJECT_NAME":"TIANMU-1 09","OBJECT_ID":"2023-101C","EPOCH":"2026-04-05T15:01:50.945376","MEAN_MOTION":15.29429992,"ECCENTRICITY":0.00048834,"INCLINATION":97.2613,"RA_OF_ASC_NODE":147.2044,"ARG_OF_PERICENTER":76.3962,"MEAN_ANOMALY":283.7822,"EPHEMERIS_TYPE":0,"CLASSIFICATION_TYPE":"U","NORAD_CAT_ID":57401,"ELEMENT_SET_NO":999,"REV_AT_EPOCH":15055,"BSTAR":0.00032525097,"MEAN_MOTION_DOT":9.213e-5,"MEAN_MOTION_DDOT":0}]
